STARLINK-2156
1 27742C 21017W   21325.15623721  .00004858  00000-0  32544-3 0  3254
2 27742  53.0555  47.5403 0001155  70.9209 355.5870 15.06397274    19
